GSAT0101 (PRN E11)      
1 37846U 11060A   20208.25338534 -.00000059  00000-0  00000-0 0  9996
2 37846  56.6536  40.2162 0002682  31.6390 328.4255  1.70475348 54430
GSAT0102 (PRN E12)      
1 37847U 11060B   20210.52503163 -.00000064  00000-0  00000-0 0  9998
2 37847  56.6557  40.1532 0002606 344.6674  15.6520  1.70475450 54481
GSAT0103 (PRN E19)      
1 38857U 12055A   20208.88183185  .00000033  00000-0  00000+0 0  9993
2 38857  54.9858 160.6967 0004387 273.8440  86.0738  1.70473682 48481
GSAT0104 (PRN E20)      
1 38858U 12055B   20208.81620655  .00000033  00000-0  00000+0 0  9995
2 38858  54.9863 160.6979 0003299 282.6920  77.2391  1.70473641 48430
GSAT0201 (PRN E18)      
1 40128U 14050A   20209.28720592 -.00000102  00000-0  00000-0 0  9997
2 40128  50.5657 359.7836 1662942 100.6770 278.4422  1.85518824 38447
GSAT0202 (PRN E14)      
1 40129U 14050B   20209.55078040 -.00000104  00000-0  00000-0 0  9994
2 40129  50.6022 358.8111 1660823 101.5050 277.5696  1.85519457 40582
GSAT0203 (PRN E26)      
1 40544U 15017A   20209.79411779 -.00000063  00000-0  00000+0 0  9998
2 40544  56.4478  40.3023 0001811 226.0166 134.0168  1.70474670 33206
GSAT0204 (PRN E22)      
1 40545U 15017B   20208.98865862 -.00000062  00000-0  00000-0 0  9995
2 40545  56.4533  40.3402 0002229 149.0116 211.0497  1.70475074 33191
GSAT0205 (PRN E24)      
1 40889U 15045A   20208.64462894 -.00000012  00000-0  00000-0 0  9993
2 40889  56.1207 281.0235 0002345 350.8497   9.2178  1.70475407 30334
GSAT0206 (PRN E30)      
1 40890U 15045B   20209.45077184 -.00000014  00000-0  00000-0 0  9991
2 40890  56.1188 280.9975 0001379 300.5344  59.5213  1.70475408 30375
GSAT0209 (PRN E09)      
1 41174U 15079A   20209.62336139  .00000027  00000-0  00000+0 0  9993
2 41174  55.0009 160.3743 0005603 309.7046  50.2132  1.70472885 28695
GSAT0208 (PRN E08)      
1 41175U 15079B   20208.66992801  .00000033  00000-0  00000-0 0  9999
2 41175  54.9988 160.4001 0004802 310.1059  49.8200  1.70472978 28680
GSAT0211 (PRN E02)      
1 41549U 16030A   20210.55169263 -.00000014  00000-0  00000-0 0  9991
2 41549  56.2607 280.8276 0003403 285.6927  74.3384  1.70475138 26028
GSAT0210 (PRN E01)      
1 41550U 16030B   20209.67143957 -.00000014  00000-0  00000-0 0  9996
2 41550  56.2611 280.8539 0003800 255.1308 104.8962  1.70475258 26005
GSAT0207 (PRN E07)      
1 41859U 16069A   20208.74306614  .00000033  00000-0  00000+0 0  9997
2 41859  54.6586 160.7514 0005485 298.6916  61.2211  1.70472849 22953
GSAT0212 (PRN E03)      
1 41860U 16069B   20208.00991745  .00000036  00000-0  00000+0 0  9996
2 41860  54.6560 160.7706 0004522 316.6342  43.2970  1.70472838 22966
GSAT0213 (PRN E04)      
1 41861U 16069C   20209.54891943  .00000028  00000-0  00000+0 0  9997
2 41861  54.6586 160.7319 0004608 281.1454  78.7699  1.70472991 22994
GSAT0214 (PRN E05)      
1 41862U 16069D   20207.34957777  .00000037  00000-0  00000-0 0  9993
2 41862  54.6573 160.7884 0003898 287.3300  72.5922  1.70472888 22947
GSAT0215 (PRN E21)      
1 43055U 17079A   20208.42629251 -.00000011  00000-0  00000+0 0  9996
2 43055  56.2369 280.7295 0003289 246.3025 113.7360  1.70474316 16301
GSAT0216 (PRN E25)      
1 43056U 17079B   20210.47876823 -.00000014  00000-0  00000-0 0  9998
2 43056  56.2363 280.6728 0005083 256.9479 103.0642  1.70474455 16321
GSAT0217 (PRN E27)      
1 43057U 17079C   20208.35249694 -.00000011  00000-0  00000+0 0  9999
2 43057  56.2359 280.7318 0004308 265.5146  94.5095  1.70474423 16308
GSAT0218 (PRN E31)      
1 43058U 17079D   20209.74565202 -.00000014  00000-0  00000-0 0  9994
2 43058  56.2349 280.6908 0005585 254.8521 105.1553  1.70474379 16351
GSAT0221 (PRN E15)      
1 43564U 18060A   20209.05885139 -.00000061  00000-0  00000+0 0  9996
2 43564  56.8348  39.9602 0002202 269.6985  90.3239  1.70475677 12506
GSAT0222 (PRN E33)      
1 43565U 18060B   20209.86528853 -.00000063  00000-0  00000-0 0  9996
2 43565  56.8376  39.9375 0001916 286.3341  73.6927  1.70475673 12557
GSAT0219 (PRN E36)      
1 43566U 18060C   20208.91241232 -.00000061  00000-0  00000-0 0  9993
2 43566  56.8374  39.9652 0001598 275.7471  84.2824  1.70475567 12518
GSAT0220 (PRN E13)      
1 43567U 18060D   20209.71887593 -.00000062  00000-0  00000-0 0  9990
2 43567  56.8374  39.9435 0001681 277.0050  83.0237  1.70475322 12513
